{
    "links": {
        "self": "http://www.neowsapp.com/rest/v1/neo/3726022?api_key=iIulBulltgU6a56xZRHN4H3l9WmuAYTsLGpBGhQ2"
    },
    "id": "3726022",
    "neo_reference_id": "3726022",
    "name": "(2015 PA229)",
    "designation": "2015 PA229",
    "nasa_jpl_url": "http://ssd.jpl.nasa.gov/sbdb.cgi?sstr=3726022",
    "absolute_magnitude_h": 21.5,
    "estimated_diameter": {
        "kilometers": {
            "estimated_diameter_min": 0.1332155667,
            "estimated_diameter_max": 0.2978790628
        },
        "meters": {
            "estimated_diameter_min": 133.2155666981,
            "estimated_diameter_max": 297.8790627982
        },
        "miles": {
            "estimated_diameter_min": 0.0827762899,
            "estimated_diameter_max": 0.1850934111
        },
        "feet": {
            "estimated_diameter_min": 437.0589598459,
            "estimated_diameter_max": 977.2935443908
        }
    },
    "is_potentially_hazardous_asteroid": false,
    "close_approach_data": [
        {
            "close_approach_date": "2015-08-20",
            "close_approach_date_full": "2015-Aug-20 08:11",
            "epoch_date_close_approach": 1440058260000,
            "relative_velocity": {
                "kilometers_per_second": "9.9450772785",
                "kilometers_per_hour": "35802.2782027157",
                "miles_per_hour": "22246.1433643486"
            },
            "miss_distance": {
                "astronomical": "0.1995467277",
                "lunar": "77.6236770753",
                "kilometers": "29851765.429389999",
                "miles": "18549026.9080160262"
            },
            "orbiting_body": "Earth"
        },
        {
            "close_approach_date": "2049-10-19",
            "close_approach_date_full": "2049-Oct-19 06:08",
            "epoch_date_close_approach": 2518236480000,
            "relative_velocity": {
                "kilometers_per_second": "15.8731705505",
                "kilometers_per_hour": "57143.4139819721",
                "miles_per_hour": "35506.6952045204"
            },
            "miss_distance": {
                "astronomical": "0.4441256967",
                "lunar": "172.7648960163",
                "kilometers": "66440258.238586029",
                "miles": "41284062.1020600402"
            },
            "orbiting_body": "Earth"
        }
    ],
    "orbital_data": {
        "orbit_id": "14",
        "orbit_determination_date": "2018-02-10 07:06:53",
        "first_observation_date": "2015-07-30",
        "last_observation_date": "2015-11-06",
        "data_arc_in_days": 99,
        "observations_used": 50,
        "orbit_uncertainty": "6",
        "minimum_orbit_intersection": ".117682",
        "jupiter_tisserand_invariant": "3.424",
        "epoch_osculation": "2459000.5",
        "eccentricity": ".5117698547113477",
        "semi_major_axis": "2.265449955401348",
        "inclination": "6.182910175877818",
        "ascending_node_longitude": "314.8458242506489",
        "orbital_period": "1245.461010053708",
        "perihelion_distance": "1.106060960869771",
        "perihelion_argument": "38.54410364021417",
        "aphelion_distance": "3.424838949932924",
        "perihelion_time": "2458517.354506568284",
        "mean_anomaly": "139.6530089913592",
        "mean_motion": ".2890495945629609",
        "equinox": "J2000",
        "orbit_class": {
            "orbit_class_type": "AMO",
            "orbit_class_description": "Near-Earth asteroid orbits similar to that of 1221 Amor",
            "orbit_class_range": "1.017 AU < q (perihelion) < 1.3 AU"
        }
    },
    "is_sentry_object": false
}